[
    {
        "Altitude(m)": 622205.8427703301,
        "Argument of Periapsis(deg)": 0.0,
        "Eccentricity": 0.0,
        "Inclination(deg)": 60.0,
        "Latitude(deg)": -52.162367186994956,
        "Longitude(deg)": 147.7003053977329,
        "Mean Anomaly(deg)": 245.4545,
        "RAAN(deg)": 20.0,
        "Satellite Name": "Test1 103",
        "Satellite Number": 103,
        "Semi-Major Axis(m)": 6980739.136638005,
        "Time(s)": 0
    },
    {
        "Altitude(m)": 622344.749736346,
        "Argument of Periapsis(deg)": 0.00010418945913296404,
        "Eccentricity": 0.0,
        "Inclination(deg)": 60.0,
        "Latitude(deg)": -52.5199477402015,
        "Longitude(deg)": 148.48151540749524,
        "Mean Anomaly(deg)": 246.07460614546184,
        "RAAN(deg)": 19.99957995086026,
        "Satellite Name": "Test1 103",
        "Satellite Number": 103,
        "Semi-Major Axis(m)": 6980739.136638005,
        "Time(s)": 10
    }
]